CCSDS_OMM_VERS = 2.0
CREATION_DATE  = 
ORIGINATOR     = 

OBJECT_NAME    = SL-3 R/B
OBJECT_ID      = 1982-079B
CENTER_NAME    = EARTH
REF_FRAME      = TEME
TIME_SYSTEM    = UTC
MEAN_ELEMENT_THEORY = SGP/SGP4

EPOCH          = 2026-01-10T20:05:07.057536
MEAN_MOTION    = 15.23995250
ECCENTRICITY   = .00256657
INCLINATION    = 81.1460
RA_OF_ASC_NODE = 261.3553
ARG_OF_PERICENTER = 4.7658
MEAN_ANOMALY   = 355.3814

EPHEMERIS_TYPE = 0
CLASSIFICATION_TYPE = U
NORAD_CAT_ID   = 13403
ELEMENT_SET_NO = 999
REV_AT_EPOCH   = 36888
BSTAR          = .24428159E-3
MEAN_MOTION_DOT = .5995E-4
MEAN_MOTION_DDOT = 0

CCSDS_OMM_VERS = 2.0
CREATION_DATE  = 
ORIGINATOR     = 

OBJECT_NAME    = SL-14 R/B
OBJECT_ID      = 1982-092B
CENTER_NAME    = EARTH
REF_FRAME      = TEME
TIME_SYSTEM    = UTC
MEAN_ELEMENT_THEORY = SGP/SGP4

EPOCH          = 2026-01-10T23:18:11.865024
MEAN_MOTION    = 14.86590633
ECCENTRICITY   = .00214846
INCLINATION    = 82.5668
RA_OF_ASC_NODE = 195.3724
ARG_OF_PERICENTER = 130.0580
MEAN_ANOMALY   = 346.3078

EPHEMERIS_TYPE = 0
CLASSIFICATION_TYPE = U
NORAD_CAT_ID   = 13553
ELEMENT_SET_NO = 999
REV_AT_EPOCH   = 32035
BSTAR          = .60054314E-4
MEAN_MOTION_DOT = .559E-5
MEAN_MOTION_DDOT = 0

CCSDS_OMM_VERS = 2.0
CREATION_DATE  = 
ORIGINATOR     = 

OBJECT_NAME    = SL-3 R/B
OBJECT_ID      = 1983-010B
CENTER_NAME    = EARTH
REF_FRAME      = TEME
TIME_SYSTEM    = UTC
MEAN_ELEMENT_THEORY = SGP/SGP4

EPOCH          = 2026-01-10T14:43:06.920256
MEAN_MOTION    = 15.44378470
ECCENTRICITY   = .00161912
INCLINATION    = 81.1034
RA_OF_ASC_NODE = 73.3513
ARG_OF_PERICENTER = 246.8234
MEAN_ANOMALY   = 113.1304

EPHEMERIS_TYPE = 0
CLASSIFICATION_TYPE = U
NORAD_CAT_ID   = 13819
ELEMENT_SET_NO = 999
REV_AT_EPOCH   = 34897
BSTAR          = .25955116E-3
MEAN_MOTION_DOT = .12071E-3
MEAN_MOTION_DDOT = 0

CCSDS_OMM_VERS = 2.0
CREATION_DATE  = 
ORIGINATOR     = 

OBJECT_NAME    = SL-3 R/B
OBJECT_ID      = 1983-075B
CENTER_NAME    = EARTH
REF_FRAME      = TEME
TIME_SYSTEM    = UTC
MEAN_ELEMENT_THEORY = SGP/SGP4

EPOCH          = 2026-01-10T23:08:01.074912
MEAN_MOTION    = 15.36852616
ECCENTRICITY   = .00244969
INCLINATION    = 97.6119
RA_OF_ASC_NODE = 13.4442
ARG_OF_PERICENTER = 77.3895
MEAN_ANOMALY   = 283.0086

EPHEMERIS_TYPE = 0
CLASSIFICATION_TYPE = U
NORAD_CAT_ID   = 14208
ELEMENT_SET_NO = 999
REV_AT_EPOCH   = 32128
BSTAR          = .30681778E-3
MEAN_MOTION_DOT = .11079E-3
MEAN_MOTION_DDOT = 0

CCSDS_OMM_VERS = 2.0
CREATION_DATE  = 
ORIGINATOR     = 

OBJECT_NAME    = COSMOS 1536
OBJECT_ID      = 1984-013A
CENTER_NAME    = EARTH
REF_FRAME      = TEME
TIME_SYSTEM    = UTC
MEAN_ELEMENT_THEORY = SGP/SGP4

EPOCH          = 2026-01-10T20:26:51.775296
MEAN_MOTION    = 15.22962687
ECCENTRICITY   = .0015545
INCLINATION    = 82.5458
RA_OF_ASC_NODE = 165.2843
ARG_OF_PERICENTER = 123.3921
MEAN_ANOMALY   = 236.8805

EPHEMERIS_TYPE = 0
CLASSIFICATION_TYPE = U
NORAD_CAT_ID   = 14699
ELEMENT_SET_NO = 999
REV_AT_EPOCH   = 26381
BSTAR          = .26688204E-3
MEAN_MOTION_DOT = .632E-4
MEAN_MOTION_DDOT = 0

CCSDS_OMM_VERS = 2.0
CREATION_DATE  = 
ORIGINATOR     = 

OBJECT_NAME    = SL-14 R/B
OBJECT_ID      = 1984-027B
CENTER_NAME    = EARTH
REF_FRAME      = TEME
TIME_SYSTEM    = UTC
MEAN_ELEMENT_THEORY = SGP/SGP4

EPOCH          = 2026-01-10T20:22:37.626240
MEAN_MOTION    = 14.85911939
ECCENTRICITY   = .00183998
INCLINATION    = 82.5432
RA_OF_ASC_NODE = 299.2604
ARG_OF_PERICENTER = 160.2720
MEAN_ANOMALY   = 199.9213

EPHEMERIS_TYPE = 0
CLASSIFICATION_TYPE = U
NORAD_CAT_ID   = 14820
ELEMENT_SET_NO = 999
REV_AT_EPOCH   = 23904
BSTAR          = .56197955E-4
MEAN_MOTION_DOT = .516E-5
MEAN_MOTION_DDOT = 0

CCSDS_OMM_VERS = 2.0
CREATION_DATE  = 
ORIGINATOR     = 

OBJECT_NAME    = SL-8 R/B
OBJECT_ID      = 1985-006B
CENTER_NAME    = EARTH
REF_FRAME      = TEME
TIME_SYSTEM    = UTC
MEAN_ELEMENT_THEORY = SGP/SGP4

EPOCH          = 2026-01-10T23:26:02.273280
MEAN_MOTION    = 14.37743832
ECCENTRICITY   = .00197197
INCLINATION    = 74.0461
RA_OF_ASC_NODE = 7.3399
ARG_OF_PERICENTER = 294.5138
MEAN_ANOMALY   = 129.7109

EPHEMERIS_TYPE = 0
CLASSIFICATION_TYPE = U
NORAD_CAT_ID   = 15483
ELEMENT_SET_NO = 999
REV_AT_EPOCH   = 14573
BSTAR          = .11371219E-3
MEAN_MOTION_DOT = .316E-5
MEAN_MOTION_DDOT = 0

CCSDS_OMM_VERS = 2.0
CREATION_DATE  = 
ORIGINATOR     = 

OBJECT_NAME    = SL-12 R/B(2)
OBJECT_ID      = 1985-042D
CENTER_NAME    = EARTH
REF_FRAME      = TEME
TIME_SYSTEM    = UTC
MEAN_ELEMENT_THEORY = SGP/SGP4

EPOCH          = 2026-01-10T14:06:33.624288
MEAN_MOTION    = 14.21961329
ECCENTRICITY   = .00366241
INCLINATION    = 71.1064
RA_OF_ASC_NODE = 210.4761
ARG_OF_PERICENTER = 218.9431
MEAN_ANOMALY   = 200.5761

EPHEMERIS_TYPE = 0
CLASSIFICATION_TYPE = U
NORAD_CAT_ID   = 15772
ELEMENT_SET_NO = 999
REV_AT_EPOCH   = 10613
BSTAR          = .79800885E-4
MEAN_MOTION_DOT = .13E-5
MEAN_MOTION_DDOT = 0

CCSDS_OMM_VERS = 2.0
CREATION_DATE  = 
ORIGINATOR     = 

OBJECT_NAME    = SL-14 R/B
OBJECT_ID      = 1985-069B
CENTER_NAME    = EARTH
REF_FRAME      = TEME
TIME_SYSTEM    = UTC
MEAN_ELEMENT_THEORY = SGP/SGP4

EPOCH          = 2026-01-10T15:35:12.492960
MEAN_MOTION    = 14.86361897
ECCENTRICITY   = .00194828
INCLINATION    = 82.5263
RA_OF_ASC_NODE = 79.5241
ARG_OF_PERICENTER = 28.9867
MEAN_ANOMALY   = 331.2427

EPHEMERIS_TYPE = 0
CLASSIFICATION_TYPE = U
NORAD_CAT_ID   = 15945
ELEMENT_SET_NO = 999
REV_AT_EPOCH   = 16421
BSTAR          = .51491739E-4
MEAN_MOTION_DOT = .48E-5
MEAN_MOTION_DDOT = 0

CCSDS_OMM_VERS = 2.0
CREATION_DATE  = 
ORIGINATOR     = 

OBJECT_NAME    = SL-16 R/B
OBJECT_ID      = 1985-097B
CENTER_NAME    = EARTH
REF_FRAME      = TEME
TIME_SYSTEM    = UTC
MEAN_ELEMENT_THEORY = SGP/SGP4

EPOCH          = 2026-01-10T20:59:39.249312
MEAN_MOTION    = 14.16591707
ECCENTRICITY   = .00084259
INCLINATION    = 71.0028
RA_OF_ASC_NODE = 262.2679
ARG_OF_PERICENTER = 329.1849
MEAN_ANOMALY   = 105.0843

EPHEMERIS_TYPE = 0
CLASSIFICATION_TYPE = U
NORAD_CAT_ID   = 16182
ELEMENT_SET_NO = 999
REV_AT_EPOCH   = 7904
BSTAR          = .10514032E-3
MEAN_MOTION_DOT = .162E-5
MEAN_MOTION_DDOT = 0

CCSDS_OMM_VERS = 2.0
CREATION_DATE  = 
ORIGINATOR     = 

OBJECT_NAME    = SL-14 R/B
OBJECT_ID      = 1986-006B
CENTER_NAME    = EARTH
REF_FRAME      = TEME
TIME_SYSTEM    = UTC
MEAN_ELEMENT_THEORY = SGP/SGP4

EPOCH          = 2026-01-10T21:51:12.171456
MEAN_MOTION    = 14.86717048
ECCENTRICITY   = .00782482
INCLINATION    = 82.5287
RA_OF_ASC_NODE = 314.1057
ARG_OF_PERICENTER = 103.9170
MEAN_ANOMALY   = 257.0766

EPHEMERIS_TYPE = 0
CLASSIFICATION_TYPE = U
NORAD_CAT_ID   = 16496
ELEMENT_SET_NO = 999
REV_AT_EPOCH   = 14062
BSTAR          = .74020717E-4
MEAN_MOTION_DOT = .724E-5
MEAN_MOTION_DDOT = 0

CCSDS_OMM_VERS = 2.0
CREATION_DATE  = 
ORIGINATOR     = 

OBJECT_NAME    = COSMOS 1743
OBJECT_ID      = 1986-034A
CENTER_NAME    = EARTH
REF_FRAME      = TEME
TIME_SYSTEM    = UTC
MEAN_ELEMENT_THEORY = SGP/SGP4

EPOCH          = 2026-01-10T20:11:32.983008
MEAN_MOTION    = 15.54177583
ECCENTRICITY   = .0005198
INCLINATION    = 82.5353
RA_OF_ASC_NODE = 134.3225
ARG_OF_PERICENTER = 141.2902
MEAN_ANOMALY   = 218.8725

EPHEMERIS_TYPE = 0
CLASSIFICATION_TYPE = U
NORAD_CAT_ID   = 16719
ELEMENT_SET_NO = 999
REV_AT_EPOCH   = 17125
BSTAR          = .51769621E-3
MEAN_MOTION_DOT = .33813E-3
MEAN_MOTION_DDOT = 0

