SL-3 R/B                
1 13403U 82079B   26010.83688724  .00005995  00000+0  24428-3 0  9992
2 13403  81.1460 261.3553 0025665   4.7658 355.3814 15.23995250368885
SL-14 R/B               
1 13553U 82092B   26010.97097066  .00000559  00000+0  60054-4 0  9998
2 13553  82.5668 195.3724 0021484 130.0580 346.3078 14.86590633320350
SL-3 R/B                
1 13819U 83010B   26010.61327454  .00012071  00000+0  25955-3 0  9994
2 13819  81.1034  73.3513 0016191 246.8234 113.1304 15.44378470348977
SL-3 R/B                
1 14208U 83075B   26010.96390133  .00011079  00000+0  30682-3 0  9990
2 14208  97.6119  13.4442 0024496  77.3895 283.0086 15.36852616321288
COSMOS 1536             
1 14699U 84013A   26010.85198814  .00006320  00000+0  26688-3 0  9991
2 14699  82.5458 165.2843 0015545 123.3921 236.8805 15.22962687263813
SL-14 R/B               
1 14820U 84027B   26010.84904660  .00000516  00000+0  56198-4 0  9996
2 14820  82.5432 299.2604 0018399 160.2720 199.9213 14.85911939239043
SL-8 R/B                
1 15483U 85006B   26010.97641520  .00000316  00000+0  11371-3 0  9998
2 15483  74.0461   7.3399 0019719 294.5138 129.7109 14.37743832145736
SL-12 R/B(2)            
1 15772U 85042D   26010.58788917  .00000130  00000+0  79801-4 0  9995
2 15772  71.1064 210.4761 0036624 218.9431 200.5761 14.21961329106133
SL-14 R/B               
1 15945U 85069B   26010.64945015  .00000480  00000+0  51492-4 0  9991
2 15945  82.5263  79.5241 0019482  28.9867 331.2427 14.86361897164213
SL-16 R/B               
1 16182U 85097B   26010.87475983  .00000162  00000+0  10514-3 0  9999
2 16182  71.0028 262.2679 0008425 329.1849 105.0843 14.16591707 79049
SL-14 R/B               
1 16496U 86006B   26010.91055754  .00000724  00000+0  74021-4 0  9991
2 16496  82.5287 314.1057 0078248 103.9170 257.0766 14.86717048140623
COSMOS 1743             
1 16719U 86034A   26010.84135397  .00033813  00000+0  51770-3 0  9994
2 16719  82.5353 134.3225 0005198 141.2902 218.8725 15.54177583171259
